{
  "type": "FeatureCollection",
  "features": [
    {
      "type": "Feature",
      "properties": {
        "campus_id": "beiyuan",
        "name": "南校区北院",
        "source": "OpenStreetMap",
        "osm_type": "way",
        "osm_id": 379492031,
        "coordinate_system": "WGS84"
      },
      "geometry": {
        "type": "Polygon",
        "coordinates": [
          [
            [
              108.9492173,
              34.232063
            ],
            [
              108.9494044,
              34.2318868
            ],
            [
              108.9535242,
              34.2318713
            ],
            [
              108.9550409,
              34.2318867
            ],
            [
              108.9550509,
              34.2330015
            ],
            [
              108.9550538,
              34.2331418
            ],
            [
              108.9556993,
              34.2331422
            ],
            [
              108.9556883,
              34.2337414
            ],
            [
              108.9565158,
              34.2337345
            ],
            [
              108.9565239,
              34.2338119
            ],
            [
              108.95653,
              34.2339959
            ],
            [
              108.9565207,
              34.2342421
            ],
            [
              108.9565236,
              34.2345228
            ],
            [
              108.9565334,
              34.2347643
            ],
            [
              108.9553427,
              34.2347615
            ],
            [
              108.9553433,
              34.234985
            ],
            [
              108.9553441,
              34.2352753
            ],
            [
              108.9553447,
              34.2355224
            ],
            [
              108.9553452,
              34.23571
            ],
            [
              108.9543908,
              34.2357034
            ],
            [
              108.9543148,
              34.2357029
            ],
            [
              108.9534619,
              34.2356994
            ],
            [
              108.9534548,
              34.2370207
            ],
            [
              108.9492569,
              34.2370314
            ],
            [
              108.9492173,
              34.232063
            ]
          ]
        ]
      }
    }
  ]
}