{
  "type": "FeatureCollection",
  "features": [
    {
      "type": "Feature",
      "properties": {
        "campus_id": "xiaozhai",
        "name": "南校区西院",
        "source": "OpenStreetMap",
        "osm_type": "way",
        "osm_id": 1419575279,
        "coordinate_system": "WGS84"
      },
      "geometry": {
        "type": "Polygon",
        "coordinates": [
          [
            [
              108.942282,
              34.2259741
            ],
            [
              108.942282,
              34.2262335
            ],
            [
              108.9422825,
              34.2262286
            ],
            [
              108.9422843,
              34.2262236
            ],
            [
              108.9422873,
              34.2262188
            ],
            [
              108.9422915,
              34.2262144
            ],
            [
              108.9422967,
              34.2262109
            ],
            [
              108.9423026,
              34.2262085
            ],
            [
              108.9423087,
              34.2262073
            ],
            [
              108.9423256,
              34.2262065
            ],
            [
              108.9424902,
              34.2262066
            ],
            [
              108.9424902,
              34.2262483
            ],
            [
              108.9430823,
              34.2262534
            ],
            [
              108.9430823,
              34.2264646
            ],
            [
              108.9430823,
              34.2264887
            ],
            [
              108.9430823,
              34.2265073
            ],
            [
              108.9430454,
              34.2265073
            ],
            [
              108.9430454,
              34.2266736
            ],
            [
              108.9430454,
              34.2267019
            ],
            [
              108.9435791,
              34.2267019
            ],
            [
              108.9436889,
              34.2267019
            ],
            [
              108.943726,
              34.2267019
            ],
            [
              108.9439324,
              34.2267019
            ],
            [
              108.9440578,
              34.2267019
            ],
            [
              108.9442877,
              34.2267019
            ],
            [
              108.9444684,
              34.2267019
            ],
            [
              108.9444876,
              34.2267019
            ],
            [
              108.9450653,
              34.2267019
            ],
            [
              108.9453347,
              34.2267019
            ],
            [
              108.9453347,
              34.22669
            ],
            [
              108.9458919,
              34.22669
            ],
            [
              108.946014,
              34.22669
            ],
            [
              108.946014,
              34.2265366
            ],
            [
              108.946014,
              34.2264521
            ],
            [
              108.946014,
              34.2249969
            ],
            [
              108.946014,
              34.2246142
            ],
            [
              108.9460132,
              34.2245228
            ],
            [
              108.9460117,
              34.2245179
            ],
            [
              108.9460087,
              34.2245131
            ],
            [
              108.9460045,
              34.2245088
            ],
            [
              108.9459992,
              34.2245053
            ],
            [
              108.9459934,
              34.2245027
            ],
            [
              108.9459873,
              34.2245013
            ],
            [
              108.9449785,
              34.2245009
            ],
            [
              108.9449473,
              34.2245009
            ],
            [
              108.9449468,
              34.2245226
            ],
            [
              108.9449448,
              34.2246142
            ],
            [
              108.9449412,
              34.2248736
            ],
            [
              108.9449368,
              34.2251945
            ],
            [
              108.9449361,
              34.2252471
            ],
            [
              108.944895,
              34.2252633
            ],
            [
              108.9448567,
              34.2252836
            ],
            [
              108.9448218,
              34.2253076
            ],
            [
              108.9447907,
              34.2253352
            ],
            [
              108.9447907,
              34.2253629
            ],
            [
              108.9447907,
              34.2254668
            ],
            [
              108.9449076,
              34.2254668
            ],
            [
              108.9449076,
              34.2255495
            ],
            [
              108.9446355,
              34.2255495
            ],
            [
              108.9445993,
              34.2255894
            ],
            [
              108.9445578,
              34.2256154
            ],
            [
              108.9445116,
              34.2256303
            ],
            [
              108.9444611,
              34.2256373
            ],
            [
              108.9444017,
              34.2256391
            ],
            [
              108.9440587,
              34.2256391
            ],
            [
              108.9438882,
              34.2256391
            ],
            [
              108.9437411,
              34.2256391
            ],
            [
              108.9432316,
              34.2256391
            ],
            [
              108.9432316,
              34.2259667
            ],
            [
              108.9432316,
              34.2259741
            ],
            [
              108.9425352,
              34.2259741
            ],
            [
              108.9424902,
              34.2259741
            ],
            [
              108.942282,
              34.2259741
            ]
          ]
        ]
      }
    }
  ]
}