{
  "type": "FeatureCollection",
  "features": [
    {
      "type": "Feature",
      "properties": {
        "campus_id": "weishui",
        "name": "北校区",
        "source": "OpenStreetMap",
        "osm_type": "way",
        "osm_id": 271773865,
        "coordinate_system": "WGS84"
      },
      "geometry": {
        "type": "Polygon",
        "coordinates": [
          [
            [
              108.8917821,
              34.3734929
            ],
            [
              108.8855068,
              34.3719475
            ],
            [
              108.8854275,
              34.3719
            ],
            [
              108.8853423,
              34.371737
            ],
            [
              108.8852941,
              34.3710678
            ],
            [
              108.8856544,
              34.3710781
            ],
            [
              108.8857327,
              34.3705948
            ],
            [
              108.8852551,
              34.3705851
            ],
            [
              108.8851438,
              34.3687269
            ],
            [
              108.8852644,
              34.3668085
            ],
            [
              108.8853512,
              34.3653785
            ],
            [
              108.8924245,
              34.3671874
            ],
            [
              108.893726,
              34.3675537
            ],
            [
              108.8966235,
              34.3682966
            ],
            [
              108.900259,
              34.3692364
            ],
            [
              108.9009314,
              34.3694168
            ],
            [
              108.9016373,
              34.3695989
            ],
            [
              108.9096821,
              34.3716447
            ],
            [
              108.9099449,
              34.3717115
            ],
            [
              108.9086247,
              34.3746856
            ],
            [
              108.9085694,
              34.3748103
            ],
            [
              108.9073157,
              34.3776344
            ],
            [
              108.9071657,
              34.3778451
            ],
            [
              108.9070792,
              34.3778623
            ],
            [
              108.9048427,
              34.3772908
            ],
            [
              108.9045138,
              34.3772135
            ],
            [
              108.9038534,
              34.3770457
            ],
            [
              108.9016931,
              34.3764958
            ],
            [
              108.8921669,
              34.3735992
            ],
            [
              108.8917821,
              34.3734929
            ]
          ]
        ]
      }
    }
  ]
}