{
  "type": "FeatureCollection",
  "features": [
    {
      "type": "Feature",
      "properties": {
        "campus_id": "yanta",
        "name": "南校区东院",
        "source": "OpenStreetMap",
        "osm_type": "way",
        "osm_id": 269474454,
        "coordinate_system": "WGS84"
      },
      "geometry": {
        "type": "Polygon",
        "coordinates": [
          [
            [
              108.9548007,
              34.2279913
            ],
            [
              108.954845,
              34.2262235
            ],
            [
              108.9568413,
              34.2262198
            ],
            [
              108.9586591,
              34.2262164
            ],
            [
              108.9589295,
              34.2262159
            ],
            [
              108.9588689,
              34.2279123
            ],
            [
              108.9586538,
              34.2280537
            ],
            [
              108.9548007,
              34.2279913
            ]
          ]
        ]
      }
    }
  ]
}